{"type":"FeatureCollection","features":[{"type":"Feature","properties":{"codigo_indec":"02","nombre":"Ciudad Autónoma de Buenos Aires"},"geometry":{"type":"MultiPolygon","coordinates":[[[[-58.455,-34.528],[-58.366,-34.593],[-58.335,-34.627],[-58.461,-34.705],[-58.529,-34.655],[-58.532,-34.616],[-58.501,-34.549],[-58.455,-34.528]]]]}},{"type":"Feature","properties":{"codigo_indec":"74","nombre":"San Luis"},"geometry":{"type":"MultiPolygon","coordinates":[[[[-67.055,-31.856],[-66.605,-31.923],[-66.367,-31.998],[-66.299,-31.931],[-66.079,-31.972],[-66.069,-31.936],[-65.979,-31.889],[-65.628,-31.899],[-65.246,-32.089],[-65.212,-32.327],[-64.941,-32.298],[-64.919,-32.484],[-64.883,-32.53],[-64.921,-32.624],[-64.909,-32.685],[-64.971,-32.805],[-64.963,-32.863],[-65.022,-32.973],[-65.0,-33.003],[-65.071,-33.138],[-65.143,-33.195],[-65.109,-33.951],[-65.108,-35.999],[-66.638,-36.001],[-66.622,-35.848],[-66.548,-35.639],[-66.57,-35.581],[-66.525,-35.54],[-66.496,-35.311],[-66.52,-35.274],[-66.484,-35.241],[-66.478,-35.142],[-66.5,-35.094],[-66.541,-35.015],[-66.525,-34.944],[-66.561,-34.833],[-66.65,-34.758],[-66.641,-34.717],[-66.69,-34.691],[-66.703,-34.62],[-66.757,-34.567],[-66.754,-34.443],[-66.795,-34.411],[-66.764,-34.379],[-66.812,-34.345],[-66.776,-34.299],[-66.784,-34.233],[-66.719,-34.212],[-66.734,-34.137],[-66.667,-33.957],[-66.873,-33.833],[-66.883,-33.769],[-67.005,-33.667],[-66.998,-33.633],[-67.135,-33.465],[-67.18,-33.252],[-67.179,-33.004],[-67.232,-32.885],[-67.166,-32.759],[-67.257,-32.626],[-67.263,-32.553],[-67.297,-32.536],[-67.289,-32.443],[-67.32,-32.389],[-67.264,-32.382],[-67.278,-32.292],[-67.38,-32.224],[-67.379,-31.868],[-67.242,-31.881],[-67.137,-31.834],[-67.055,-31.856]]]]}},{"type":"Feature","properties":{"codigo_indec":"82","nombre":"Santa Fe"},"geometry":{"type":"MultiPolygon","coordinates":[[[[-61.046,-27.998],[-58.884,-28.0],[-58.881,-28.067],[-58.945,-28.134],[-59.062,-28.128],[-59.108,-28.223],[-59.086,-28.436],[-59.049,-28.493],[-59.1,-28.576],[-59.079,-28.667],[-59.16,-28.795],[-59.2,-29.032],[-59.258,-29.09],[-59.347,-29.114],[-59.408,-29.221],[-59.501,-29.244],[-59.52,-29.343],[-59.604,-29.395],[-59.59,-29.57],[-59.618,-29.776],[-59.66,-29.843],[-59.566,-30.008],[-59.637,-30.237],[-59.711,-30.27],[-59.667,-30.366],[-59.724,-30.409],[-59.651,-30.511],[-59.646,-30.597],[-59.678,-30.647],[-59.633,-30.714],[-59.699,-30.769],[-59.735,-30.877],[-59.818,-30.943],[-59.878,-31.056],[-59.963,-31.12],[-60.003,-31.239],[-60.106,-31.29],[-60.087,-31.347],[-60.143,-31.444],[-60.212,-31.468],[-60.244,-31.53],[-60.333,-31.547],[-60.331,-31.609],[-60.468,-31.698],[-60.639,-31.742],[-60.639,-31.787],[-60.676,-31.812],[-60.657,-31.911],[-60.72,-31.959],[-60.656,-32.067],[-60.7,-32.15],[-60.679,-32.32],[-60.719,-32.334],[-60.724,-32.456],[-60.776,-32.507],[-60.716,-32.774],[-60.659,-32.831],[-60.676,-32.9],[-60.493,-33.131],[-60.392,-33.189],[-60.303,-33.184],[-60.298,-33.242],[-60.252,-33.275],[-60.273,-33.264],[-60.335,-33.412],[-60.41,-33.468],[-60.46,-33.631],[-60.531,-33.648],[-60.782,-33.579],[-60.818,-33.54],[-60.879,-33.555],[-60.934,-33.655],[-61.72,-34.386],[-62.884,-34.387],[-61.923,-33.12],[-61.788,-33.006],[-61.796,-32.774],[-61.858,-32.695],[-61.947,-32.678],[-61.889,-32.611],[-61.926,-32.584],[-61.902,-32.569],[-61.931,-32.545],[-61.915,-32.495],[-62.038,-32.263],[-62.145,-32.193],[-62.197,-32.115],[-62.168,-31.986],[-62.223,-31.884],[-62.242,-31.7],[-62.123,-31.605],[-61.842,-30.744],[-62.131,-30.48],[-61.712,-27.999],[-61.046,-27.998]]]]}},{"type":"Feature","properties":{"codigo_indec":"90","nombre":"Tucumán"},"geometry":{"type":"MultiPolygon","coordinates":[[[[-65.359,-26.059],[-65.298,-26.082],[-65.275,-26.171],[-65.041,-26.23],[-65.04,-26.29],[-64.973,-26.274],[-64.951,-26.307],[-64.79,-26.224],[-64.666,-26.243],[-64.498,-26.216],[-64.482,-26.308],[-64.535,-26.41],[-64.499,-26.674],[-64.587,-26.658],[-64.618,-26.803],[-64.707,-26.82],[-64.854,-27.318],[-64.974,-27.351],[-65.009,-27.484],[-64.968,-27.505],[-64.966,-27.551],[-65.027,-27.587],[-64.986,-27.742],[-65.028,-27.753],[-65.039,-27.879],[-65.16,-27.877],[-65.171,-27.946],[-65.371,-27.846],[-65.498,-27.923],[-65.576,-28.014],[-65.617,-27.972],[-65.666,-27.973],[-65.704,-27.808],[-65.75,-27.773],[-65.798,-27.786],[-65.832,-27.851],[-65.865,-27.689],[-65.93,-27.647],[-65.971,-27.524],[-65.972,-27.333],[-66.14,-27.262],[-65.858,-26.929],[-65.9,-26.864],[-65.831,-26.741],[-66.042,-26.6],[-66.171,-26.631],[-66.176,-26.469],[-66.156,-26.397],[-66.119,-26.377],[-66.1,-26.22],[-65.718,-26.352],[-65.689,-26.117],[-65.614,-26.123],[-65.548,-26.088],[-65.425,-26.109],[-65.359,-26.059]]]]}},{"type":"Feature","properties":{"codigo_indec":"38","nombre":"Jujuy"},"geometry":{"type":"MultiPolygon","coordinates":[[[[-66.208,-21.788],[-66.076,-21.835],[-66.048,-21.919],[-65.925,-21.934],[-65.748,-22.109],[-65.575,-22.076],[-65.187,-22.085],[-65.24,-22.279],[-65.227,-22.32],[-65.263,-22.338],[-65.347,-22.52],[-65.351,-22.602],[-65.272,-22.648],[-65.306,-22.73],[-65.252,-22.928],[-65.189,-22.998],[-65.068,-23.045],[-65.072,-23.138],[-65.045,-23.156],[-65.073,-23.218],[-65.01,-23.285],[-64.947,-23.269],[-64.91,-23.311],[-64.907,-23.424],[-64.868,-23.447],[-64.873,-23.479],[-64.787,-23.496],[-64.683,-23.452],[-64.533,-23.521],[-64.444,-23.64],[-64.393,-23.61],[-64.354,-23.518],[-64.157,-23.518],[-64.151,-24.136],[-64.223,-24.329],[-64.317,-24.427],[-64.422,-24.402],[-64.5,-24.506],[-64.536,-24.508],[-64.56,-24.577],[-64.644,-24.613],[-64.843,-24.467],[-64.885,-24.54],[-64.897,-24.592],[-64.944,-24.597],[-65.08,-24.562],[-65.194,-24.46],[-65.329,-24.5],[-65.359,-24.461],[-65.435,-24.462],[-65.464,-24.431],[-65.54,-24.452],[-65.653,-24.38],[-65.746,-24.062],[-65.867,-24.003],[-65.948,-24.007],[-65.942,-23.967],[-65.993,-23.98],[-66.022,-23.862],[-65.987,-23.51],[-66.142,-23.422],[-66.184,-23.415],[-66.264,-23.565],[-66.316,-23.57],[-66.377,-23.749],[-66.353,-23.825],[-66.381,-23.828],[-66.353,-23.89],[-66.368,-23.972],[-66.339,-23.984],[-66.362,-24.087],[-66.483,-24.213],[-66.646,-24.173],[-66.746,-24.089],[-66.837,-24.071],[-66.881,-23.974],[-66.941,-23.984],[-66.993,-23.89],[-67.213,-23.695],[-66.991,-23.0],[-67.18,-22.814],[-67.128,-22.722],[-67.014,-22.655],[-67.027,-22.541],[-66.973,-22.541],[-66.929,-22.492],[-66.782,-22.438],[-66.739,-22.238],[-66.348,-22.128],[-66.289,-22.087],[-66.243,-21.793],[-66.208,-21.788]]]]}},{"type":"Feature","properties":{"codigo_indec":"86","nombre":"Santiago del Estero"},"geometry":{"type":"MultiPolygon","coordinates":[[[[-62.379,-25.652],[-61.712,-25.655],[-61.712,-27.999],[-62.131,-30.48],[-62.174,-30.345],[-62.52,-30.342],[-62.594,-30.26],[-62.597,-30.166],[-62.556,-30.063],[-62.655,-30.055],[-62.662,-29.999],[-62.791,-29.961],[-62.839,-29.866],[-62.806,-29.834],[-63.46,-29.757],[-63.465,-29.664],[-63.672,-29.663],[-63.748,-29.653],[-63.796,-29.614],[-63.784,-29.584],[-63.842,-29.581],[-63.874,-29.631],[-63.958,-29.624],[-63.981,-29.551],[-64.275,-29.499],[-64.825,-29.574],[-64.826,-29.474],[-64.786,-29.405],[-64.842,-29.313],[-64.825,-29.274],[-64.781,-29.268],[-64.854,-29.197],[-64.901,-28.841],[-65.017,-28.738],[-65.127,-28.716],[-65.137,-28.647],[-65.187,-28.624],[-65.185,-28.601],[-65.126,-28.611],[-65.097,-28.471],[-65.112,-28.187],[-65.178,-27.916],[-65.16,-27.877],[-65.039,-27.879],[-65.028,-27.753],[-64.986,-27.742],[-65.027,-27.587],[-64.966,-27.551],[-64.968,-27.505],[-65.009,-27.484],[-64.974,-27.351],[-64.854,-27.318],[-64.707,-26.82],[-64.618,-26.803],[-64.587,-26.658],[-64.499,-26.674],[-64.535,-26.41],[-64.482,-26.308],[-64.502,-26.239],[-64.417,-26.114],[-64.413,-26.04],[-64.268,-25.701],[-64.026,-25.754],[-64.008,-25.674],[-63.476,-25.71],[-63.422,-25.649],[-62.379,-25.652]]]]}},{"type":"Feature","properties":{"codigo_indec":"14","nombre":"Córdoba"},"geometry":{"type":"MultiPolygon","coordinates":[[[[-63.894,-29.629],[-63.842,-29.581],[-63.784,-29.584],[-63.796,-29.614],[-63.719,-29.666],[-63.465,-29.664],[-63.46,-29.757],[-62.806,-29.834],[-62.839,-29.866],[-62.791,-29.961],[-62.662,-29.999],[-62.655,-30.055],[-62.556,-30.063],[-62.597,-30.166],[-62.594,-30.26],[-62.52,-30.342],[-62.174,-30.345],[-62.131,-30.48],[-61.842,-30.744],[-62.123,-31.605],[-62.242,-31.7],[-62.223,-31.884],[-62.168,-31.986],[-62.194,-32.123],[-62.134,-32.204],[-62.038,-32.263],[-61.929,-32.464],[-61.931,-32.545],[-61.902,-32.569],[-61.926,-32.584],[-61.889,-32.611],[-61.947,-32.678],[-61.858,-32.695],[-61.796,-32.774],[-61.778,-32.895],[-61.788,-33.006],[-61.923,-33.12],[-62.884,-34.387],[-63.385,-34.386],[-63.386,-35.002],[-65.107,-35.015],[-65.143,-33.195],[-65.071,-33.138],[-65.0,-33.003],[-65.022,-32.973],[-64.963,-32.863],[-64.971,-32.805],[-64.909,-32.685],[-64.921,-32.624],[-64.883,-32.53],[-64.919,-32.484],[-64.941,-32.298],[-65.212,-32.327],[-65.246,-32.089],[-65.628,-31.899],[-65.77,-31.889],[-65.771,-31.044],[-65.525,-30.491],[-65.423,-30.12],[-65.158,-30.047],[-64.938,-29.848],[-64.964,-29.596],[-64.275,-29.499],[-63.981,-29.551],[-63.958,-29.624],[-63.894,-29.629]]]]}},{"type":"Feature","properties":{"codigo_indec":"42","nombre":"La Pampa"},"geometry":{"type":"MultiPolygon","coordinates":[[[[-63.386,-35.011],[-63.383,-39.328],[-63.512,-39.313],[-63.558,-39.261],[-63.743,-39.189],[-63.788,-39.109],[-63.836,-39.136],[-63.87,-39.096],[-63.935,-39.091],[-63.992,-39.011],[-64.062,-39.01],[-64.349,-38.883],[-65.113,-38.8],[-65.375,-38.856],[-65.526,-38.779],[-65.602,-38.776],[-65.691,-38.835],[-65.88,-38.784],[-66.085,-38.725],[-66.315,-38.761],[-66.539,-38.721],[-66.607,-38.679],[-66.578,-38.623],[-66.636,-38.542],[-66.897,-38.444],[-66.996,-38.446],[-67.153,-38.357],[-67.188,-38.215],[-67.548,-38.256],[-67.656,-38.202],[-67.751,-38.056],[-67.849,-38.066],[-67.895,-38.018],[-67.873,-37.94],[-67.73,-37.852],[-67.771,-37.669],[-67.871,-37.613],[-68.254,-37.572],[-68.25,-36.172],[-68.296,-36.173],[-68.296,-35.998],[-65.108,-35.999],[-65.107,-35.015],[-63.386,-35.011]]]]}},{"type":"Feature","properties":{"codigo_indec":"22","nombre":"Chaco"},"geometry":{"type":"MultiPolygon","coordinates":[[[[-62.324,-24.123],[-62.183,-24.155],[-62.181,-24.195],[-62.136,-24.196],[-62.138,-24.219],[-62.076,-24.201],[-62.083,-24.23],[-62.055,-24.211],[-62.041,-24.24],[-61.945,-24.239],[-61.955,-24.261],[-61.908,-24.259],[-61.909,-24.307],[-61.884,-24.267],[-61.879,-24.307],[-61.799,-24.336],[-61.762,-24.307],[-61.694,-24.366],[-61.694,-24.415],[-61.583,-24.442],[-61.596,-24.479],[-61.519,-24.519],[-61.454,-24.612],[-61.23,-24.635],[-61.197,-24.661],[-61.208,-24.698],[-61.18,-24.723],[-61.157,-24.704],[-61.144,-24.805],[-60.922,-24.979],[-60.94,-25.004],[-60.822,-25.034],[-60.814,-25.075],[-60.749,-25.069],[-60.768,-25.091],[-60.721,-25.125],[-60.653,-25.12],[-60.671,-25.149],[-60.631,-25.178],[-60.571,-25.17],[-60.568,-25.199],[-60.53,-25.172],[-60.427,-25.315],[-60.354,-25.323],[-60.346,-25.38],[-60.313,-25.388],[-60.323,-25.424],[-60.296,-25.41],[-60.274,-25.467],[-60.225,-25.485],[-60.238,-25.559],[-60.205,-25.574],[-60.226,-25.586],[-60.184,-25.611],[-60.177,-25.66],[-60.142,-25.637],[-60.012,-25.729],[-59.98,-25.723],[-59.955,-25.77],[-59.878,-25.802],[-59.879,-25.842],[-59.827,-25.89],[-59.753,-25.921],[-59.725,-26.0],[-59.671,-26.003],[-59.662,-26.142],[-59.606,-26.115],[-59.574,-26.153],[-59.443,-26.154],[-59.381,-26.262],[-59.403,-26.299],[-59.358,-26.338],[-59.313,-26.319],[-59.252,-26.349],[-59.14,-26.299],[-59.154,-26.317],[-59.11,-26.326],[-59.129,-26.344],[-58.986,-26.38],[-58.846,-26.519],[-58.772,-26.537],[-58.744,-26.603],[-58.689,-26.594],[-58.682,-26.642],[-58.572,-26.688],[-58.569,-26.728],[-58.473,-26.828],[-58.401,-26.83],[-58.379,-26.862],[-58.389,-26.895],[-58.503,-26.928],[-58.469,-26.998],[-58.521,-27.004],[-58.511,-27.062],[-58.563,-27.041],[-58.557,-27.112],[-58.652,-27.131],[-58.662,-27.187],[-58.591,-27.229],[-58.623,-27.328],[-58.781,-27.382],[-58.881,-27.498],[-58.883,-27.609],[-58.819,-27.681],[-58.81,-27.783],[-58.865,-28.057],[-58.892,-28.046],[-58.884,-28.0],[-61.712,-27.999],[-61.712,-25.655],[-63.422,-25.649],[-62.342,-24.392],[-62.324,-24.123]]]]}},{"type":"Feature","properties":{"codigo_indec":"34","nombre":"Formosa"},"geometry":{"type":"MultiPolygon","coordinates":[[[[-62.312,-22.487],[-62.29,-22.474],[-62.287,-22.523],[-62.234,-22.544],[-62.264,-22.6],[-62.242,-22.628],[-62.207,-22.646],[-62.189,-22.623],[-62.197,-22.714],[-61.999,-22.931],[-61.997,-23.01],[-61.754,-23.171],[-61.735,-23.236],[-61.671,-23.285],[-61.573,-23.304],[-61.567,-23.339],[-61.515,-23.352],[-61.494,-23.424],[-61.352,-23.45],[-61.247,-23.541],[-61.122,-23.585],[-60.987,-23.813],[-60.934,-23.8],[-60.847,-23.872],[-60.612,-23.904],[-60.589,-23.959],[-60.478,-23.951],[-60.295,-24.041],[-60.039,-24.012],[-59.474,-24.333],[-59.421,-24.409],[-59.374,-24.422],[-59.35,-24.483],[-59.13,-24.617],[-58.973,-24.662],[-58.807,-24.772],[-58.727,-24.774],[-58.674,-24.832],[-58.574,-24.821],[-58.475,-24.862],[-58.334,-25.0],[-58.231,-24.926],[-58.069,-25.046],[-58.006,-25.035],[-57.991,-25.082],[-57.861,-25.082],[-57.837,-25.131],[-57.754,-25.176],[-57.703,-25.322],[-57.56,-25.457],[-57.611,-25.611],[-57.673,-25.595],[-57.675,-25.659],[-57.735,-25.647],[-57.766,-25.69],[-57.732,-25.724],[-57.781,-25.761],[-57.827,-25.754],[-57.797,-25.825],[-57.858,-25.858],[-57.837,-25.916],[-57.895,-25.961],[-57.855,-26.008],[-58.091,-26.116],[-58.12,-26.186],[-58.159,-26.181],[-58.104,-26.23],[-58.164,-26.264],[-58.16,-26.349],[-58.22,-26.392],[-58.181,-26.457],[-58.234,-26.474],[-58.191,-26.643],[-58.262,-26.649],[-58.248,-26.755],[-58.293,-26.758],[-58.284,-26.795],[-58.335,-26.81],[-58.325,-26.87],[-58.378,-26.88],[-58.401,-26.83],[-58.473,-26.828],[-58.569,-26.728],[-58.572,-26.688],[-58.682,-26.642],[-58.689,-26.594],[-58.744,-26.603],[-58.772,-26.537],[-58.846,-26.519],[-58.986,-26.38],[-59.129,-26.344],[-59.11,-26.326],[-59.154,-26.317],[-59.14,-26.299],[-59.252,-26.349],[-59.313,-26.319],[-59.358,-26.338],[-59.403,-26.299],[-59.381,-26.265],[-59.429,-26.198],[-59.414,-26.168],[-59.574,-26.153],[-59.606,-26.115],[-59.662,-26.142],[-59.671,-26.003],[-59.725,-26.0],[-59.753,-25.921],[-59.827,-25.89],[-59.879,-25.842],[-59.878,-25.802],[-59.955,-25.77],[-59.98,-25.723],[-60.012,-25.729],[-60.142,-25.637],[-60.177,-25.66],[-60.184,-25.611],[-60.226,-25.586],[-60.205,-25.574],[-60.238,-25.559],[-60.225,-25.485],[-60.274,-25.467],[-60.296,-25.41],[-60.323,-25.424],[-60.313,-25.388],[-60.346,-25.38],[-60.354,-25.323],[-60.427,-25.315],[-60.53,-25.172],[-60.568,-25.199],[-60.571,-25.17],[-60.631,-25.178],[-60.671,-25.149],[-60.653,-25.12],[-60.721,-25.125],[-60.768,-25.091],[-60.749,-25.069],[-60.814,-25.075],[-60.822,-25.034],[-60.94,-25.004],[-60.922,-24.979],[-61.144,-24.805],[-61.157,-24.704],[-61.18,-24.723],[-61.208,-24.698],[-61.197,-24.661],[-61.23,-24.635],[-61.454,-24.612],[-61.519,-24.519],[-61.596,-24.479],[-61.583,-24.442],[-61.694,-24.415],[-61.694,-24.366],[-61.762,-24.307],[-61.799,-24.336],[-61.879,-24.307],[-61.884,-24.267],[-61.909,-24.307],[-61.908,-24.259],[-61.955,-24.261],[-61.945,-24.239],[-62.041,-24.24],[-62.055,-24.211],[-62.083,-24.23],[-62.076,-24.201],[-62.138,-24.219],[-62.136,-24.196],[-62.181,-24.195],[-62.183,-24.155],[-62.324,-24.123],[-62.327,-24.079],[-62.342,-24.11],[-62.342,-22.461],[-62.312,-22.487]]]]}},{"type":"Feature","properties":{"codigo_indec":"26","nombre":"Chubut"},"geometry":{"type":"MultiPolygon","coordinates":[[[[-67.751,-42.0],[-65.069,-42.0],[-65.014,-42.093],[-64.88,-42.181],[-64.464,-42.24],[-64.559,-42.307],[-64.619,-42.415],[-64.439,-42.44],[-64.302,-42.404],[-64.124,-42.43],[-64.043,-42.351],[-64.09,-42.253],[-64.375,-42.237],[-64.075,-42.178],[-63.876,-42.084],[-63.773,-42.073],[-63.739,-42.098],[-63.599,-42.33],[-63.583,-42.607],[-63.64,-42.7],[-63.63,-42.765],[-63.679,-42.793],[-64.145,-42.874],[-64.26,-42.747],[-64.214,-42.622],[-64.273,-42.618],[-64.26,-42.59],[-64.309,-42.586],[-64.34,-42.533],[-64.564,-42.491],[-64.686,-42.513],[-64.834,-42.611],[-64.923,-42.617],[-64.988,-42.658],[-65.036,-42.732],[-65.013,-42.783],[-64.629,-42.919],[-64.397,-42.96],[-64.33,-42.936],[-64.308,-42.979],[-64.459,-43.064],[-64.758,-43.151],[-64.976,-43.255],[-65.05,-43.328],[-65.053,-43.403],[-65.333,-43.657],[-65.355,-43.764],[-65.311,-43.796],[-65.329,-43.846],[-65.299,-43.933],[-65.231,-43.973],[-65.252,-44.028],[-65.188,-44.035],[-65.241,-44.078],[-65.22,-44.137],[-65.288,-44.155],[-65.312,-44.204],[-65.217,-44.367],[-65.334,-44.456],[-65.279,-44.517],[-65.376,-44.517],[-65.359,-44.537],[-65.394,-44.558],[-65.366,-44.587],[-65.462,-44.576],[-65.463,-44.6],[-65.606,-44.647],[-65.682,-44.707],[-65.725,-44.857],[-65.52,-44.93],[-65.595,-44.957],[-65.584,-45.007],[-65.623,-45.004],[-65.612,-45.034],[-65.681,-45.029],[-65.69,-45.062],[-65.737,-45.039],[-65.808,-45.015],[-65.829,-45.039],[-65.825,-45.014],[-65.873,-45.002],[-65.887,-45.039],[-65.934,-45.049],[-66.02,-44.999],[-66.195,-44.982],[-66.276,-45.065],[-66.359,-45.04],[-66.517,-45.097],[-66.533,-45.142],[-66.465,-45.144],[-66.473,-45.166],[-66.6,-45.139],[-66.594,-45.172],[-66.514,-45.197],[-66.519,-45.223],[-66.841,-45.23],[-66.964,-45.273],[-67.345,-45.623],[-67.369,-45.787],[-67.455,-45.819],[-67.456,-45.861],[-67.552,-45.926],[-67.531,-45.959],[-67.596,-46.0],[-71.644,-46.0],[-71.613,-45.963],[-71.653,-45.89],[-71.769,-45.846],[-71.742,-45.806],[-71.801,-45.721],[-71.773,-45.681],[-71.796,-45.665],[-71.727,-45.577],[-71.764,-45.56],[-71.682,-45.515],[-71.56,-45.524],[-71.469,-45.494],[-71.534,-45.433],[-71.529,-45.393],[-71.438,-45.396],[-71.446,-45.368],[-71.336,-45.322],[-71.333,-45.241],[-71.527,-45.103],[-71.505,-45.072],[-71.558,-45.031],[-71.56,-44.977],[-71.742,-44.958],[-71.754,-44.926],[-71.817,-44.92],[-71.88,-44.959],[-72.037,-44.903],[-72.066,-44.85],[-72.027,-44.806],[-72.067,-44.76],[-71.928,-44.804],[-71.915,-44.777],[-71.815,-44.793],[-71.786,-44.752],[-71.666,-44.787],[-71.474,-44.737],[-71.292,-44.814],[-71.206,-44.75],[-71.196,-44.685],[-71.235,-44.641],[-71.201,-44.592],[-71.102,-44.591],[-71.091,-44.533],[-71.164,-44.501],[-71.13,-44.472],[-71.171,-44.439],[-71.349,-44.425],[-71.386,-44.385],[-71.658,-44.409],[-71.712,-44.379],[-71.815,-44.416],[-71.839,-44.35],[-71.787,-44.33],[-71.83,-44.265],[-71.78,-44.217],[-71.847,-44.159],[-71.849,-44.114],[-71.759,-44.1],[-71.649,-43.946],[-71.666,-43.901],[-71.707,-43.894],[-71.709,-43.856],[-71.763,-43.841],[-71.753,-43.788],[-71.66,-43.702],[-71.6,-43.697],[-71.581,-43.652],[-71.703,-43.625],[-71.708,-43.585],[-71.757,-43.584],[-71.777,-43.539],[-71.877,-43.551],[-71.849,-43.483],[-71.934,-43.449],[-71.933,-43.387],[-71.894,-43.38],[-71.904,-43.322],[-71.735,-43.314],[-71.757,-43.228],[-71.729,-43.2],[-71.933,-43.102],[-71.936,-43.053],[-72.036,-43.013],[-72.143,-42.9],[-72.118,-42.882],[-72.165,-42.798],[-72.128,-42.731],[-72.179,-42.689],[-72.123,-42.672],[-72.096,-42.641],[-72.119,-42.603],[-72.052,-42.565],[-72.012,-42.495],[-72.048,-42.452],[-72.028,-42.408],[-72.132,-42.384],[-72.121,-42.324],[-72.168,-42.259],[-72.173,-42.14],[-72.067,-42.147],[-72.052,-42.114],[-71.957,-42.141],[-71.925,-42.19],[-71.78,-42.148],[-71.725,-42.11],[-71.726,-42.048],[-71.774,-42.0],[-67.751,-42.0]]],[[[-65.993,-45.091],[-65.97,-45.111],[-66.014,-45.1],[-65.993,-45.091]]],[[[-65.598,-45.043],[-65.608,-45.06],[-65.624,-45.045],[-65.598,-45.043]]]]}},{"type":"Feature","properties":{"codigo_indec":"62","nombre":"Río Negro"},"geometry":{"type":"MultiPolygon","coordinates":[[[[-68.238,-37.585],[-67.871,-37.613],[-67.786,-37.652],[-67.721,-37.811],[-67.736,-37.858],[-67.903,-37.982],[-67.851,-38.065],[-67.751,-38.056],[-67.656,-38.202],[-67.548,-38.256],[-67.188,-38.215],[-67.153,-38.357],[-66.996,-38.446],[-66.897,-38.444],[-66.636,-38.542],[-66.578,-38.623],[-66.607,-38.679],[-66.539,-38.721],[-66.315,-38.761],[-66.085,-38.725],[-65.691,-38.835],[-65.585,-38.775],[-65.375,-38.856],[-65.113,-38.8],[-64.397,-38.873],[-64.062,-39.01],[-64.014,-39.001],[-63.933,-39.062],[-63.933,-39.094],[-63.87,-39.096],[-63.835,-39.136],[-63.788,-39.109],[-63.743,-39.189],[-63.558,-39.261],[-63.512,-39.313],[-63.383,-39.328],[-63.379,-40.71],[-63.366,-40.689],[-63.285,-40.729],[-63.192,-40.717],[-62.956,-40.819],[-62.802,-40.983],[-62.796,-41.032],[-63.117,-41.156],[-63.789,-41.159],[-64.114,-41.03],[-64.082,-41.027],[-64.099,-41.002],[-64.112,-41.023],[-64.206,-41.01],[-64.541,-40.865],[-64.746,-40.819],[-64.875,-40.829],[-64.905,-40.805],[-64.845,-40.782],[-64.845,-40.815],[-64.836,-40.786],[-64.74,-40.81],[-64.751,-40.77],[-64.798,-40.779],[-64.775,-40.74],[-64.996,-40.717],[-64.917,-40.727],[-64.959,-40.748],[-64.9,-40.761],[-65.007,-40.761],[-65.093,-40.815],[-65.167,-40.974],[-65.138,-41.23],[-65.074,-41.415],[-64.988,-41.519],[-64.986,-41.577],[-65.037,-41.598],[-64.998,-41.767],[-65.016,-41.832],[-65.049,-41.843],[-65.069,-42.0],[-71.774,-42.0],[-71.798,-41.843],[-71.752,-41.824],[-71.774,-41.794],[-71.754,-41.787],[-71.81,-41.721],[-71.794,-41.695],[-71.885,-41.606],[-71.848,-41.567],[-71.818,-41.576],[-71.852,-41.516],[-71.836,-41.433],[-71.911,-41.358],[-71.886,-41.314],[-71.898,-41.255],[-71.834,-41.272],[-71.888,-41.167],[-71.839,-41.15],[-71.852,-41.098],[-71.818,-41.062],[-71.86,-41.03],[-71.551,-41.023],[-71.306,-41.1],[-71.142,-41.056],[-71.032,-40.933],[-71.121,-40.758],[-71.094,-40.727],[-71.03,-40.724],[-70.977,-40.649],[-70.855,-40.593],[-70.654,-40.591],[-70.542,-40.504],[-70.425,-40.536],[-70.171,-40.483],[-70.175,-40.428],[-70.063,-40.375],[-70.059,-40.249],[-69.992,-40.18],[-69.95,-40.179],[-70.005,-40.047],[-69.932,-39.944],[-69.697,-39.846],[-69.507,-39.815],[-69.349,-39.712],[-69.272,-39.629],[-69.277,-39.596],[-69.113,-39.515],[-69.0,-39.515],[-68.913,-39.418],[-68.824,-39.375],[-68.802,-39.285],[-68.663,-39.215],[-68.661,-39.172],[-68.562,-39.076],[-68.302,-38.975],[-67.998,-38.996],[-68.094,-38.859],[-68.121,-38.747],[-68.256,-38.68],[-68.238,-37.585]]]]}},{"type":"Feature","properties":{"codigo_indec":"54","nombre":"Misiones"},"geometry":{"type":"MultiPolygon","coordinates":[[[[-54.336,-27.443],[-54.353,-27.466],[-54.413,-27.407],[-54.47,-27.428],[-54.446,-27.474],[-54.53,-27.507],[-54.582,-27.453],[-54.622,-27.542],[-54.678,-27.51],[-54.684,-27.575],[-54.774,-27.585],[-54.813,-27.533],[-54.847,-27.62],[-54.905,-27.639],[-54.903,-27.721],[-54.936,-27.772],[-55.084,-27.786],[-55.029,-27.854],[-55.108,-27.847],[-55.134,-27.896],[-55.197,-27.857],[-55.264,-27.929],[-55.323,-27.924],[-55.384,-27.983],[-55.376,-28.035],[-55.448,-28.099],[-55.498,-28.081],[-55.56,-28.164],[-55.588,-28.118],[-55.63,-28.139],[-55.717,-28.061],[-55.758,-28.061],[-55.749,-28.027],[-55.824,-27.948],[-55.846,-27.832],[-55.826,-27.792],[-56.055,-27.451],[-56.039,-27.346],[-56.024,-27.324],[-55.975,-27.356],[-55.896,-27.343],[-55.787,-27.44],[-55.733,-27.443],[-55.683,-27.379],[-55.59,-27.332],[-55.602,-27.285],[-55.574,-27.25],[-55.619,-27.187],[-55.561,-27.161],[-55.561,-27.101],[-55.456,-27.106],[-55.446,-27.025],[-55.376,-26.966],[-55.257,-26.938],[-55.203,-26.97],[-55.141,-26.953],[-55.142,-26.866],[-55.058,-26.799],[-54.956,-26.781],[-54.942,-26.682],[-54.812,-26.668],[-54.785,-26.623],[-54.801,-26.536],[-54.706,-26.449],[-54.648,-26.311],[-54.679,-26.263],[-54.618,-26.214],[-54.673,-26.156],[-54.643,-26.094],[-54.68,-26.004],[-54.608,-25.969],[-54.622,-25.912],[-54.587,-25.829],[-54.658,-25.678],[-54.584,-25.666],[-54.593,-25.593],[-54.495,-25.617],[-54.429,-25.694],[-54.384,-25.598],[-54.347,-25.606],[-54.288,-25.556],[-54.251,-25.598],[-54.231,-25.563],[-54.179,-25.585],[-54.205,-25.54],[-54.1,-25.495],[-54.124,-25.567],[-54.102,-25.617],[-54.081,-25.558],[-54.049,-25.585],[-54.016,-25.564],[-53.962,-25.643],[-53.948,-25.611],[-53.893,-25.622],[-53.89,-25.661],[-53.843,-25.687],[-53.879,-25.708],[-53.822,-25.793],[-53.85,-25.84],[-53.823,-25.872],[-53.85,-25.884],[-53.82,-25.898],[-53.84,-25.954],[-53.778,-26.018],[-53.733,-26.047],[-53.741,-26.118],[-53.641,-26.214],[-53.645,-26.286],[-53.71,-26.388],[-53.696,-26.49],[-53.742,-26.545],[-53.708,-26.561],[-53.76,-26.641],[-53.72,-26.651],[-53.758,-26.72],[-53.714,-26.751],[-53.744,-26.764],[-53.699,-26.77],[-53.695,-26.847],[-53.66,-26.858],[-53.697,-26.86],[-53.671,-26.895],[-53.697,-26.929],[-53.671,-26.942],[-53.709,-26.934],[-53.737,-26.974],[-53.718,-26.99],[-53.764,-27.008],[-53.747,-27.032],[-53.786,-27.026],[-53.76,-27.065],[-53.802,-27.04],[-53.772,-27.074],[-53.805,-27.079],[-53.776,-27.103],[-53.819,-27.102],[-53.799,-27.146],[-53.837,-27.17],[-53.873,-27.126],[-53.911,-27.177],[-53.952,-27.153],[-53.961,-27.196],[-54.008,-27.199],[-54.084,-27.3],[-54.154,-27.297],[-54.173,-27.255],[-54.215,-27.384],[-54.263,-27.399],[-54.285,-27.448],[-54.34,-27.404],[-54.336,-27.443]]]]}},{"type":"Feature","properties":{"codigo_indec":"66","nombre":"Salta"},"geometry":{"type":"MultiPolygon","coordinates":[[[[-62.811,-22.03],[-62.79,-22.164],[-62.765,-22.152],[-62.66,-22.251],[-62.633,-22.242],[-62.637,-22.305],[-62.569,-22.31],[-62.519,-22.378],[-62.464,-22.372],[-62.465,-22.403],[-62.381,-22.474],[-62.342,-22.457],[-62.342,-24.392],[-63.476,-25.71],[-64.008,-25.674],[-64.026,-25.754],[-64.268,-25.701],[-64.413,-26.04],[-64.417,-26.114],[-64.495,-26.219],[-64.668,-26.243],[-64.79,-26.224],[-64.951,-26.307],[-64.973,-26.274],[-65.04,-26.29],[-65.041,-26.23],[-65.275,-26.171],[-65.298,-26.082],[-65.361,-26.058],[-65.425,-26.109],[-65.548,-26.088],[-65.614,-26.123],[-65.689,-26.117],[-65.718,-26.352],[-66.071,-26.239],[-66.194,-26.131],[-66.293,-26.229],[-66.375,-26.413],[-66.527,-26.359],[-66.584,-26.16],[-66.661,-26.077],[-66.724,-26.079],[-66.843,-25.977],[-66.848,-25.796],[-66.874,-25.766],[-66.813,-25.7],[-66.649,-25.712],[-66.606,-25.629],[-66.564,-25.622],[-66.519,-25.44],[-66.537,-25.372],[-66.6,-25.362],[-66.558,-25.301],[-66.879,-25.242],[-67.865,-25.238],[-68.507,-25.168],[-68.46,-25.126],[-68.41,-25.145],[-68.344,-25.111],[-68.378,-25.032],[-68.407,-25.03],[-68.433,-24.906],[-68.52,-24.874],[-68.569,-24.794],[-68.493,-24.665],[-68.496,-24.6],[-68.468,-24.624],[-68.435,-24.607],[-68.388,-24.484],[-68.309,-24.492],[-68.26,-24.402],[-67.323,-24.034],[-67.213,-23.695],[-66.993,-23.89],[-66.941,-23.984],[-66.881,-23.974],[-66.837,-24.071],[-66.746,-24.089],[-66.646,-24.173],[-66.483,-24.213],[-66.362,-24.087],[-66.339,-23.984],[-66.368,-23.972],[-66.368,-23.695],[-66.311,-23.561],[-66.265,-23.566],[-66.172,-23.414],[-65.987,-23.51],[-66.015,-23.922],[-65.991,-23.982],[-65.938,-23.97],[-65.948,-24.007],[-65.867,-24.003],[-65.746,-24.062],[-65.725,-24.186],[-65.671,-24.253],[-65.656,-24.377],[-65.54,-24.452],[-65.464,-24.431],[-65.435,-24.462],[-65.359,-24.461],[-65.329,-24.5],[-65.194,-24.46],[-65.063,-24.563],[-64.897,-24.592],[-64.846,-24.467],[-64.644,-24.613],[-64.56,-24.577],[-64.536,-24.508],[-64.5,-24.506],[-64.422,-24.402],[-64.318,-24.427],[-64.274,-24.393],[-64.162,-24.221],[-64.157,-23.518],[-64.354,-23.518],[-64.393,-23.61],[-64.448,-23.639],[-64.533,-23.521],[-64.683,-23.452],[-64.787,-23.496],[-64.864,-23.485],[-64.907,-23.424],[-64.91,-23.311],[-64.947,-23.269],[-65.01,-23.285],[-65.072,-23.22],[-65.045,-23.156],[-65.072,-23.138],[-65.067,-23.047],[-65.189,-22.998],[-65.252,-22.928],[-65.306,-22.73],[-65.272,-22.648],[-65.351,-22.602],[-65.347,-22.52],[-65.263,-22.338],[-65.227,-22.32],[-65.24,-22.279],[-65.187,-22.085],[-64.993,-22.082],[-64.737,-22.194],[-64.617,-22.205],[-64.538,-22.284],[-64.567,-22.369],[-64.513,-22.413],[-64.525,-22.441],[-64.492,-22.436],[-64.483,-22.48],[-64.412,-22.538],[-64.441,-22.639],[-64.395,-22.686],[-64.403,-22.719],[-64.344,-22.739],[-64.341,-22.862],[-64.316,-22.883],[-64.242,-22.666],[-64.265,-22.65],[-64.242,-22.558],[-64.116,-22.406],[-64.095,-22.309],[-64.062,-22.238],[-64.034,-22.243],[-64.0,-22.108],[-63.958,-22.086],[-63.931,-21.999],[-63.709,-21.999],[-63.684,-22.055],[-63.665,-21.999],[-62.811,-21.999],[-62.811,-22.03]]]]}},{"type":"Feature","properties":{"codigo_indec":"06","nombre":"Buenos Aires"},"geometry":{"type":"MultiPolygon","coordinates":[[[[-60.241,-33.273],[-60.045,-33.448],[-59.829,-33.525],[-59.804,-33.596],[-59.656,-33.622],[-59.617,-33.694],[-59.517,-33.631],[-59.437,-33.729],[-59.254,-33.722],[-59.242,-33.807],[-59.174,-33.807],[-59.131,-33.848],[-58.993,-33.842],[-58.855,-33.947],[-58.764,-33.945],[-58.65,-34.037],[-58.474,-34.002],[-58.368,-34.018],[-58.345,-34.038],[-58.373,-34.158],[-58.354,-34.205],[-58.403,-34.259],[-58.54,-34.296],[-58.454,-34.388],[-58.514,-34.442],[-58.46,-34.528],[-58.501,-34.549],[-58.529,-34.655],[-58.461,-34.705],[-58.343,-34.63],[-58.179,-34.744],[-58.014,-34.781],[-57.947,-34.833],[-57.874,-34.826],[-57.508,-35.025],[-57.34,-35.159],[-57.223,-35.273],[-57.128,-35.442],[-57.365,-35.745],[-57.39,-35.861],[-57.351,-36.027],[-57.279,-36.138],[-57.115,-36.28],[-56.914,-36.338],[-56.794,-36.33],[-56.776,-36.293],[-56.71,-36.373],[-56.667,-36.883],[-57.126,-37.493],[-57.492,-37.828],[-57.541,-37.968],[-57.54,-38.048],[-57.518,-38.039],[-57.545,-38.101],[-57.853,-38.296],[-58.33,-38.483],[-58.693,-38.577],[-59.012,-38.679],[-59.789,-38.826],[-61.143,-39.0],[-61.607,-39.004],[-61.707,-38.965],[-61.81,-38.993],[-62.073,-38.925],[-62.166,-38.812],[-62.397,-38.796],[-62.394,-38.835],[-62.327,-38.836],[-62.352,-38.863],[-62.321,-38.904],[-62.346,-38.95],[-62.3,-38.993],[-62.307,-39.053],[-62.354,-39.101],[-62.331,-39.117],[-62.352,-39.113],[-62.342,-39.163],[-62.237,-39.252],[-62.317,-39.266],[-62.13,-39.293],[-62.009,-39.367],[-62.086,-39.39],[-62.185,-39.298],[-62.288,-39.299],[-62.263,-39.347],[-62.203,-39.347],[-62.239,-39.36],[-62.194,-39.377],[-62.208,-39.401],[-62.15,-39.38],[-62.16,-39.4],[-62.045,-39.447],[-62.119,-39.663],[-62.092,-39.68],[-62.123,-39.708],[-62.115,-39.849],[-62.142,-39.872],[-62.27,-39.872],[-62.279,-39.849],[-62.286,-39.879],[-62.32,-39.868],[-62.339,-40.187],[-62.488,-40.301],[-62.419,-40.464],[-62.32,-40.505],[-62.282,-40.571],[-62.254,-40.552],[-62.318,-40.526],[-62.182,-40.577],[-62.175,-40.638],[-62.232,-40.688],[-62.311,-40.87],[-62.712,-41.038],[-62.79,-41.024],[-62.951,-40.823],[-63.047,-40.773],[-63.192,-40.717],[-63.285,-40.729],[-63.366,-40.689],[-63.379,-40.71],[-63.385,-34.386],[-61.72,-34.386],[-60.934,-33.655],[-60.894,-33.565],[-60.818,-33.54],[-60.782,-33.579],[-60.685,-33.585],[-60.557,-33.647],[-60.469,-33.638],[-60.414,-33.545],[-60.41,-33.468],[-60.335,-33.412],[-60.273,-33.264],[-60.241,-33.273]]],[[[-61.999,-39.091],[-61.999,-39.13],[-61.991,-39.09],[-61.967,-39.115],[-61.956,-39.091],[-61.913,-39.103],[-61.947,-39.148],[-61.909,-39.163],[-61.896,-39.14],[-61.89,-39.091],[-61.883,-39.2],[-61.855,-39.177],[-61.872,-39.245],[-61.95,-39.179],[-62.055,-39.159],[-62.041,-39.109],[-61.999,-39.091]]],[[[-62.041,-38.996],[-62.015,-39.03],[-62.067,-39.014],[-62.114,-39.017],[-62.109,-38.993],[-62.041,-38.996]]],[[[-62.152,-40.379],[-62.137,-40.404],[-62.198,-40.437],[-62.174,-40.369],[-62.152,-40.379]]],[[[-62.038,-39.082],[-62.014,-39.107],[-62.063,-39.152],[-62.073,-39.134],[-62.079,-39.084],[-62.038,-39.082]]],[[[-62.18,-40.461],[-62.157,-40.458],[-62.197,-40.514],[-62.235,-40.508],[-62.2,-40.446],[-62.18,-40.461]]],[[[-62.084,-39.232],[-62.07,-39.25],[-62.12,-39.239],[-62.158,-39.194],[-62.084,-39.232]]],[[[-58.283,-34.21],[-58.31,-34.244],[-58.325,-34.194],[-58.283,-34.21]]],[[[-62.112,-40.176],[-62.096,-40.214],[-62.127,-40.196],[-62.117,-40.127],[-62.112,-40.176]]],[[[-62.288,-40.299],[-62.265,-40.311],[-62.3,-40.343],[-62.288,-40.299]]],[[[-58.243,-34.249],[-58.269,-34.269],[-58.269,-34.227],[-58.243,-34.249]]],[[[-61.895,-39.133],[-61.92,-39.141],[-61.909,-39.108],[-61.895,-39.133]]],[[[-62.24,-38.839],[-62.227,-38.857],[-62.254,-38.843],[-62.24,-38.839]]],[[[-58.477,-34.303],[-58.491,-34.316],[-58.507,-34.299],[-58.477,-34.303]]],[[[-58.32,-34.177],[-58.334,-34.195],[-58.332,-34.171],[-58.32,-34.177]]]]}},{"type":"Feature","properties":{"codigo_indec":"94","nombre":"Tierra del Fuego, Antártida e Islas del Atlántico Sur"},"geometry":{"type":"MultiPolygon","coordinates":[[[[-68.569,-52.707],[-68.288,-52.951],[-68.202,-53.142],[-68.267,-53.016],[-68.36,-53.018],[-68.538,-53.144],[-68.548,-53.248],[-68.387,-53.312],[-68.137,-53.331],[-67.99,-53.585],[-67.682,-53.797],[-67.775,-53.836],[-67.674,-53.785],[-67.546,-53.84],[-67.58,-53.869],[-67.535,-53.927],[-67.164,-54.12],[-66.734,-54.26],[-66.465,-54.479],[-65.803,-54.652],[-65.551,-54.647],[-65.52,-54.678],[-65.235,-54.619],[-65.255,-54.663],[-65.234,-54.641],[-65.117,-54.656],[-65.193,-54.695],[-65.204,-54.78],[-65.265,-54.799],[-65.223,-54.818],[-65.313,-54.873],[-65.329,-54.921],[-65.414,-54.94],[-65.428,-54.894],[-65.468,-54.889],[-65.554,-54.942],[-65.719,-54.971],[-65.739,-54.91],[-65.982,-54.903],[-65.971,-54.968],[-66.301,-54.991],[-66.369,-55.009],[-66.372,-55.04],[-66.522,-55.057],[-66.719,-55.005],[-66.764,-54.961],[-67.278,-54.87],[-67.41,-54.889],[-67.506,-54.853],[-67.703,-54.886],[-68.264,-54.795],[-68.315,-54.812],[-68.261,-54.841],[-68.57,-54.844],[-68.501,-54.867],[-68.609,-54.894],[-68.607,-52.659],[-68.569,-52.707]]],[[[-58.97,-51.233],[-58.744,-51.317],[-58.73,-51.348],[-58.738,-51.314],[-58.572,-51.36],[-58.568,-51.323],[-58.618,-51.351],[-58.636,-51.313],[-58.529,-51.293],[-58.341,-51.354],[-58.332,-51.387],[-58.378,-51.392],[-58.315,-51.415],[-58.357,-51.433],[-58.33,-51.438],[-58.35,-51.462],[-58.369,-51.433],[-58.456,-51.455],[-58.483,-51.399],[-58.518,-51.421],[-58.505,-51.381],[-58.596,-51.439],[-58.523,-51.429],[-58.626,-51.467],[-58.517,-51.429],[-58.541,-51.445],[-58.503,-51.453],[-58.559,-51.48],[-58.518,-51.475],[-58.527,-51.512],[-58.491,-51.468],[-58.473,-51.491],[-58.425,-51.468],[-58.421,-51.534],[-58.461,-51.547],[-58.417,-51.563],[-58.404,-51.528],[-58.377,-51.53],[-58.383,-51.566],[-58.328,-51.567],[-58.326,-51.538],[-58.276,-51.556],[-58.264,-51.595],[-58.309,-51.615],[-58.251,-51.614],[-58.278,-51.662],[-58.241,-51.654],[-58.251,-51.622],[-58.219,-51.66],[-58.225,-51.637],[-58.173,-51.644],[-58.211,-51.642],[-58.251,-51.584],[-58.146,-51.612],[-58.263,-51.553],[-58.201,-51.524],[-58.299,-51.53],[-58.298,-51.487],[-58.332,-51.521],[-58.378,-51.513],[-58.352,-51.486],[-58.386,-51.484],[-58.328,-51.476],[-58.282,-51.391],[-57.944,-51.361],[-57.851,-51.413],[-57.871,-51.434],[-57.835,-51.479],[-57.739,-51.512],[-57.848,-51.501],[-57.844,-51.475],[-57.897,-51.499],[-57.764,-51.54],[-57.954,-51.54],[-58.062,-51.494],[-58.017,-51.536],[-58.115,-51.512],[-58.095,-51.533],[-58.165,-51.547],[-58.106,-51.585],[-58.085,-51.565],[-58.059,-51.592],[-57.725,-51.643],[-57.86,-51.676],[-57.958,-51.652],[-57.831,-51.682],[-57.92,-51.687],[-57.717,-51.683],[-57.821,-51.722],[-58.009,-51.734],[-57.882,-51.747],[-58.036,-51.759],[-58.067,-51.736],[-58.065,-51.772],[-58.156,-51.766],[-58.152,-51.74],[-58.194,-51.767],[-58.297,-51.747],[-58.235,-51.758],[-58.201,-51.778],[-58.232,-51.783],[-58.109,-51.789],[-58.387,-51.824],[-58.321,-51.844],[-58.282,-51.807],[-58.165,-51.816],[-58.234,-51.828],[-58.224,-51.867],[-58.257,-51.868],[-58.226,-51.845],[-58.275,-51.85],[-58.317,-51.868],[-58.283,-51.879],[-58.375,-51.887],[-58.401,-51.923],[-58.467,-51.922],[-58.404,-51.9],[-58.504,-51.895],[-58.566,-51.83],[-58.593,-51.831],[-58.548,-51.882],[-58.511,-51.888],[-58.595,-51.887],[-58.57,-51.908],[-58.678,-51.904],[-58.63,-51.883],[-58.718,-51.873],[-58.692,-51.894],[-58.762,-51.899],[-58.855,-51.865],[-58.814,-51.857],[-58.933,-51.84],[-58.921,-51.813],[-58.952,-51.787],[-58.979,-51.854],[-59.116,-51.836],[-59.092,-51.855],[-59.134,-51.882],[-59.021,-51.853],[-59.028,-51.886],[-58.975,-51.855],[-58.76,-51.937],[-58.915,-51.898],[-58.842,-51.933],[-58.862,-51.947],[-58.769,-51.956],[-58.767,-51.988],[-58.744,-51.952],[-58.626,-51.966],[-58.602,-51.991],[-58.632,-52.006],[-58.587,-52.016],[-58.688,-52.024],[-58.636,-52.051],[-58.663,-52.055],[-58.639,-52.111],[-58.66,-52.141],[-58.705,-52.069],[-58.738,-52.079],[-58.736,-52.05],[-58.823,-52.024],[-58.814,-52.057],[-58.897,-52.034],[-58.86,-52.085],[-58.887,-52.075],[-58.928,-52.117],[-58.953,-52.061],[-58.989,-52.098],[-58.985,-52.045],[-59.018,-52.044],[-59.016,-52.02],[-59.101,-52.03],[-59.137,-51.977],[-59.154,-51.996],[-59.19,-51.972],[-59.171,-52.013],[-59.278,-51.99],[-59.319,-52.013],[-59.295,-52.029],[-59.266,-52.007],[-59.188,-52.028],[-59.236,-52.054],[-59.199,-52.053],[-59.213,-52.081],[-59.132,-52.039],[-59.149,-52.058],[-59.1,-52.082],[-59.178,-52.103],[-59.068,-52.103],[-59.18,-52.145],[-59.144,-52.144],[-59.158,-52.162],[-59.11,-52.135],[-59.119,-52.165],[-59.024,-52.144],[-59.104,-52.198],[-59.023,-52.205],[-59.054,-52.242],[-59.011,-52.256],[-59.2,-52.203],[-59.223,-52.226],[-59.268,-52.164],[-59.326,-52.179],[-59.292,-52.141],[-59.35,-52.16],[-59.368,-52.111],[-59.371,-52.145],[-59.411,-52.116],[-59.382,-52.158],[-59.455,-52.125],[-59.436,-52.153],[-59.491,-52.166],[-59.399,-52.179],[-59.466,-52.196],[-59.423,-52.193],[-59.461,-52.224],[-59.407,-52.207],[-59.436,-52.244],[-59.378,-52.205],[-59.33,-52.212],[-59.388,-52.226],[-59.342,-52.254],[-59.415,-52.284],[-59.348,-52.268],[-59.384,-52.319],[-59.298,-52.332],[-59.363,-52.359],[-59.426,-52.331],[-59.415,-52.31],[-59.498,-52.312],[-59.478,-52.275],[-59.511,-52.274],[-59.509,-52.243],[-59.584,-52.26],[-59.553,-52.204],[-59.63,-52.21],[-59.614,-52.188],[-59.646,-52.182],[-59.624,-52.174],[-59.737,-52.125],[-59.705,-52.095],[-59.668,-52.101],[-59.68,-52.124],[-59.612,-52.124],[-59.641,-52.084],[-59.551,-52.068],[-59.654,-52.006],[-59.546,-52.005],[-59.648,-51.965],[-59.519,-51.973],[-59.615,-51.951],[-59.61,-51.918],[-59.47,-51.928],[-59.538,-51.882],[-59.442,-51.892],[-59.515,-51.858],[-59.497,-51.836],[-59.449,-51.824],[-59.455,-51.847],[-59.411,-51.813],[-59.379,-51.859],[-59.35,-51.788],[-59.272,-51.798],[-59.305,-51.76],[-59.269,-51.743],[-59.249,-51.767],[-59.215,-51.717],[-59.216,-51.763],[-59.198,-51.722],[-59.167,-51.744],[-59.158,-51.708],[-59.087,-51.691],[-59.054,-51.692],[-59.052,-51.753],[-59.025,-51.768],[-59.071,-51.785],[-59.029,-51.809],[-59.049,-51.827],[-58.949,-51.774],[-59.004,-51.776],[-59.009,-51.711],[-59.04,-51.707],[-59.034,-51.677],[-59.005,-51.689],[-59.025,-51.672],[-58.996,-51.685],[-59.048,-51.653],[-58.977,-51.671],[-59.179,-51.584],[-59.113,-51.529],[-59.128,-51.496],[-59.087,-51.529],[-59.077,-51.588],[-59.014,-51.606],[-59.05,-51.574],[-59.027,-51.561],[-59.065,-51.52],[-59.045,-51.505],[-58.925,-51.522],[-58.935,-51.546],[-58.843,-51.516],[-58.92,-51.527],[-59.145,-51.461],[-59.097,-51.41],[-58.962,-51.445],[-59.021,-51.419],[-59.006,-51.385],[-58.868,-51.379],[-58.859,-51.354],[-58.97,-51.233]]],[[[-59.387,-51.337],[-59.189,-51.399],[-59.293,-51.431],[-59.267,-51.445],[-59.293,-51.464],[-59.201,-51.439],[-59.335,-51.525],[-59.33,-51.493],[-59.367,-51.486],[-59.354,-51.508],[-59.497,-51.52],[-59.354,-51.51],[-59.403,-51.536],[-59.339,-51.529],[-59.389,-51.605],[-59.479,-51.636],[-59.442,-51.585],[-59.537,-51.648],[-59.503,-51.602],[-59.591,-51.661],[-59.604,-51.687],[-59.543,-51.648],[-59.608,-51.731],[-59.765,-51.812],[-59.86,-51.964],[-60.005,-52.005],[-59.998,-51.969],[-60.077,-51.962],[-60.052,-51.942],[-60.079,-51.938],[-60.117,-51.965],[-60.088,-51.971],[-60.1,-52.008],[-60.239,-52.017],[-60.159,-51.965],[-60.285,-51.991],[-60.291,-52.015],[-60.331,-51.979],[-60.358,-52.007],[-60.284,-52.018],[-60.283,-52.082],[-60.242,-52.019],[-60.33,-52.151],[-60.384,-52.137],[-60.377,-52.108],[-60.327,-52.102],[-60.406,-52.092],[-60.388,-52.136],[-60.504,-52.113],[-60.405,-52.125],[-60.37,-52.176],[-60.416,-52.145],[-60.466,-52.179],[-60.543,-52.112],[-60.586,-52.126],[-60.558,-52.138],[-60.577,-52.164],[-60.545,-52.137],[-60.49,-52.181],[-60.551,-52.184],[-60.504,-52.204],[-60.651,-52.26],[-60.697,-52.211],[-60.632,-52.215],[-60.665,-52.193],[-60.629,-52.175],[-60.672,-52.192],[-60.697,-52.179],[-60.661,-52.154],[-60.703,-52.174],[-60.702,-52.142],[-60.744,-52.148],[-60.663,-52.141],[-60.716,-52.103],[-60.747,-52.125],[-60.851,-52.108],[-60.719,-52.177],[-60.799,-52.189],[-60.859,-52.124],[-60.934,-52.117],[-61.023,-52.043],[-61.013,-52.075],[-61.048,-52.073],[-61.043,-52.014],[-61.08,-52.014],[-61.024,-52.008],[-60.976,-52.049],[-60.897,-52.037],[-60.918,-52.068],[-60.882,-52.073],[-60.92,-52.083],[-60.857,-52.085],[-60.805,-52.058],[-60.871,-52.071],[-60.896,-52.028],[-60.745,-52.018],[-60.825,-52.0],[-60.846,-51.954],[-60.704,-51.964],[-60.722,-52.012],[-60.691,-51.97],[-60.683,-52.047],[-60.639,-52.038],[-60.677,-52.032],[-60.649,-51.969],[-60.634,-51.999],[-60.578,-51.987],[-60.608,-52.027],[-60.556,-52.026],[-60.571,-51.989],[-60.537,-52.003],[-60.545,-52.027],[-60.507,-52.024],[-60.57,-51.984],[-60.436,-51.967],[-60.397,-51.926],[-60.543,-51.954],[-60.648,-51.926],[-60.506,-51.936],[-60.45,-51.876],[-60.478,-51.872],[-60.456,-51.839],[-60.478,-51.825],[-60.459,-51.786],[-60.373,-51.765],[-60.419,-51.823],[-60.399,-51.799],[-60.357,-51.815],[-60.417,-51.868],[-60.36,-51.855],[-60.369,-51.89],[-60.327,-51.865],[-60.334,-51.819],[-60.276,-51.831],[-60.328,-51.805],[-60.294,-51.779],[-60.331,-51.78],[-60.324,-51.761],[-60.267,-51.749],[-60.281,-51.772],[-60.214,-51.793],[-60.182,-51.707],[-60.289,-51.721],[-60.318,-51.696],[-60.382,-51.717],[-60.358,-51.756],[-60.522,-51.761],[-60.55,-51.778],[-60.54,-51.807],[-60.641,-51.728],[-60.649,-51.667],[-60.521,-51.713],[-60.231,-51.657],[-59.974,-51.742],[-60.086,-51.714],[-60.026,-51.699],[-60.094,-51.698],[-60.084,-51.66],[-60.136,-51.684],[-60.258,-51.627],[-60.232,-51.609],[-60.305,-51.598],[-60.259,-51.561],[-60.314,-51.577],[-60.29,-51.553],[-60.328,-51.525],[-60.35,-51.544],[-60.302,-51.561],[-60.333,-51.581],[-60.398,-51.568],[-60.39,-51.544],[-60.495,-51.54],[-60.509,-51.5],[-60.382,-51.487],[-60.455,-51.438],[-60.521,-51.452],[-60.65,-51.414],[-60.631,-51.376],[-60.665,-51.361],[-60.61,-51.36],[-60.664,-51.34],[-60.244,-51.494],[-60.165,-51.483],[-60.131,-51.507],[-59.972,-51.476],[-60.1,-51.438],[-60.009,-51.381],[-59.983,-51.388],[-60.02,-51.403],[-60.002,-51.422],[-59.891,-51.382],[-59.86,-51.392],[-59.901,-51.395],[-59.874,-51.401],[-59.908,-51.403],[-59.899,-51.423],[-59.821,-51.395],[-59.875,-51.414],[-59.731,-51.42],[-59.777,-51.448],[-59.832,-51.435],[-59.817,-51.455],[-59.635,-51.437],[-59.627,-51.469],[-59.619,-51.435],[-59.491,-51.395],[-59.483,-51.415],[-59.607,-51.445],[-59.52,-51.481],[-59.543,-51.442],[-59.467,-51.465],[-59.385,-51.439],[-59.477,-51.405],[-59.436,-51.388],[-59.454,-51.355],[-59.398,-51.368],[-59.417,-51.342],[-59.387,-51.337]]],[[[-64.334,-54.732],[-64.216,-54.734],[-64.139,-54.77],[-64.15,-54.73],[-64.108,-54.764],[-64.047,-54.73],[-64.043,-54.778],[-63.99,-54.736],[-63.876,-54.717],[-63.855,-54.732],[-63.879,-54.755],[-63.796,-54.726],[-63.846,-54.789],[-63.953,-54.813],[-63.955,-54.767],[-64.037,-54.802],[-64.061,-54.78],[-64.11,-54.833],[-64.201,-54.828],[-64.221,-54.858],[-64.234,-54.782],[-64.303,-54.805],[-64.45,-54.876],[-64.492,-54.869],[-64.444,-54.839],[-64.467,-54.824],[-64.606,-54.911],[-64.704,-54.915],[-64.644,-54.889],[-64.684,-54.861],[-64.664,-54.851],[-64.749,-54.856],[-64.738,-54.805],[-64.674,-54.8],[-64.692,-54.782],[-64.648,-54.777],[-64.587,-54.821],[-64.511,-54.798],[-64.545,-54.725],[-64.412,-54.783],[-64.422,-54.755],[-64.391,-54.749],[-64.371,-54.811],[-64.376,-54.751],[-64.334,-54.732]]],[[[-60.9,-51.762],[-60.857,-51.79],[-60.898,-51.884],[-60.872,-51.89],[-60.916,-51.896],[-60.87,-51.917],[-60.987,-51.987],[-61.057,-51.967],[-61.038,-51.958],[-61.074,-51.941],[-61.039,-51.926],[-61.138,-51.904],[-61.134,-51.86],[-61.094,-51.848],[-61.161,-51.853],[-61.163,-51.83],[-61.101,-51.809],[-61.117,-51.837],[-61.039,-51.845],[-61.064,-51.826],[-61.034,-51.815],[-61.038,-51.784],[-60.976,-51.779],[-60.988,-51.805],[-60.934,-51.813],[-61.052,-51.89],[-60.919,-51.832],[-60.903,-51.856],[-60.876,-51.806],[-60.911,-51.79],[-60.9,-51.762]]],[[[-60.315,-51.267],[-60.045,-51.333],[-60.108,-51.404],[-60.275,-51.41],[-60.316,-51.389],[-60.275,-51.397],[-60.285,-51.369],[-60.235,-51.338],[-60.176,-51.397],[-60.121,-51.363],[-60.286,-51.304],[-60.315,-51.267]]],[[[-59.765,-51.248],[-59.603,-51.261],[-59.588,-51.311],[-59.491,-51.276],[-59.45,-51.332],[-59.479,-51.303],[-59.461,-51.351],[-59.586,-51.344],[-59.619,-51.305],[-59.821,-51.276],[-59.824,-51.254],[-59.765,-51.248]]],[[[-58.484,-51.989],[-58.403,-52.005],[-58.47,-52.027],[-58.423,-52.027],[-58.435,-52.078],[-58.414,-52.098],[-58.463,-52.098],[-58.446,-52.075],[-58.554,-52.028],[-58.484,-51.989]]],[[[-59.778,-52.149],[-59.768,-52.174],[-59.697,-52.168],[-59.67,-52.222],[-59.737,-52.293],[-59.762,-52.267],[-59.743,-52.19],[-59.808,-52.17],[-59.778,-52.149]]],[[[-61.234,-51.795],[-61.196,-51.822],[-61.241,-51.821],[-61.256,-51.839],[-61.23,-51.843],[-61.265,-51.862],[-61.207,-51.86],[-61.264,-51.869],[-61.348,-51.825],[-61.298,-51.831],[-61.306,-51.8],[-61.262,-51.831],[-61.234,-51.795]]],[[[-59.955,-51.282],[-59.9,-51.312],[-59.95,-51.317],[-59.925,-51.341],[-59.952,-51.357],[-60.045,-51.306],[-59.955,-51.282]]],[[[-59.683,-52.301],[-59.757,-52.382],[-59.802,-52.366],[-59.755,-52.311],[-59.683,-52.301]]],[[[-67.511,-54.877],[-67.447,-54.879],[-67.414,-54.912],[-67.533,-54.904],[-67.54,-54.88],[-67.511,-54.877]]],[[[-58.825,-52.156],[-58.85,-52.17],[-58.835,-52.211],[-58.972,-52.234],[-58.857,-52.214],[-58.863,-52.177],[-58.828,-52.133],[-58.825,-52.156]]],[[[-61.26,-51.677],[-61.211,-51.702],[-61.293,-51.706],[-61.285,-51.754],[-61.313,-51.751],[-61.333,-51.693],[-61.26,-51.677]]],[[[-59.75,-51.32],[-59.66,-51.371],[-59.722,-51.357],[-59.745,-51.382],[-59.793,-51.355],[-59.75,-51.348],[-59.782,-51.322],[-59.75,-51.32]]],[[[-60.597,-51.247],[-60.519,-51.292],[-60.536,-51.309],[-60.606,-51.27],[-60.597,-51.247]]],[[[-60.871,-51.968],[-60.852,-52.014],[-60.909,-52.005],[-60.95,-51.995],[-60.871,-51.968]]],[[[-61.125,-51.022],[-61.046,-51.078],[-61.078,-51.078],[-61.137,-51.062],[-61.109,-51.049],[-61.125,-51.022]]],[[[-59.557,-51.781],[-59.559,-51.806],[-59.628,-51.799],[-59.557,-51.781]]],[[[-60.731,-51.326],[-60.671,-51.357],[-60.709,-51.379],[-60.731,-51.326]]],[[[-59.692,-51.936],[-59.701,-51.96],[-59.667,-51.976],[-59.7,-51.989],[-59.724,-51.975],[-59.692,-51.936]]],[[[-59.664,-52.356],[-59.648,-52.371],[-59.699,-52.397],[-59.743,-52.386],[-59.664,-52.356]]],[[[-59.076,-52.421],[-59.037,-52.433],[-59.131,-52.445],[-59.076,-52.421]]],[[[-59.718,-51.389],[-59.685,-51.398],[-59.711,-51.42],[-59.74,-51.409],[-59.718,-51.389]]],[[[-60.7,-51.604],[-60.657,-51.659],[-60.678,-51.673],[-60.7,-51.604]]],[[[-59.728,-52.091],[-59.738,-52.062],[-59.717,-52.046],[-59.728,-52.091]]],[[[-59.646,-51.369],[-59.606,-51.38],[-59.668,-51.385],[-59.646,-51.369]]],[[[-59.605,-51.405],[-59.607,-51.423],[-59.642,-51.418],[-59.605,-51.405]]],[[[-58.712,-52.126],[-58.716,-52.139],[-58.735,-52.13],[-58.712,-52.126]]],[[[-58.675,-51.938],[-58.649,-51.945],[-58.676,-51.946],[-58.675,-51.938]]]]}},{"type":"Feature","properties":{"codigo_indec":"30","nombre":"Entre Ríos"},"geometry":{"type":"MultiPolygon","coordinates":[[[[-58.585,-30.159],[-58.369,-30.265],[-58.286,-30.245],[-58.207,-30.288],[-58.142,-30.405],[-58.073,-30.425],[-58.069,-30.545],[-58.034,-30.598],[-57.822,-30.719],[-57.797,-30.783],[-57.824,-30.912],[-57.915,-30.921],[-57.862,-31.043],[-57.917,-31.123],[-57.913,-31.213],[-57.997,-31.361],[-57.979,-31.388],[-58.082,-31.458],[-57.981,-31.581],[-58.038,-31.759],[-58.086,-31.821],[-58.207,-31.872],[-58.138,-32.002],[-58.183,-32.159],[-58.1,-32.26],[-58.123,-32.34],[-58.183,-32.377],[-58.205,-32.462],[-58.084,-33.001],[-58.176,-33.077],[-58.362,-33.121],[-58.404,-33.179],[-58.39,-33.279],[-58.432,-33.363],[-58.434,-33.499],[-58.495,-33.587],[-58.434,-33.722],[-58.424,-33.917],[-58.345,-34.038],[-58.426,-34.007],[-58.655,-34.035],[-58.764,-33.945],[-58.855,-33.947],[-58.993,-33.842],[-59.131,-33.848],[-59.174,-33.807],[-59.242,-33.807],[-59.254,-33.722],[-59.437,-33.729],[-59.517,-33.631],[-59.617,-33.694],[-59.659,-33.62],[-59.788,-33.604],[-59.834,-33.521],[-60.045,-33.448],[-60.201,-33.292],[-60.298,-33.242],[-60.303,-33.184],[-60.424,-33.174],[-60.601,-33.006],[-60.676,-32.9],[-60.659,-32.831],[-60.716,-32.774],[-60.776,-32.507],[-60.724,-32.456],[-60.719,-32.334],[-60.679,-32.32],[-60.7,-32.15],[-60.658,-32.051],[-60.724,-31.978],[-60.653,-31.897],[-60.676,-31.812],[-60.628,-31.733],[-60.468,-31.698],[-60.331,-31.609],[-60.333,-31.547],[-60.244,-31.53],[-60.212,-31.468],[-60.143,-31.444],[-60.087,-31.347],[-60.106,-31.29],[-60.013,-31.251],[-59.963,-31.12],[-59.903,-31.085],[-59.818,-30.943],[-59.735,-30.877],[-59.699,-30.769],[-59.633,-30.711],[-59.678,-30.647],[-59.646,-30.597],[-59.651,-30.511],[-59.723,-30.412],[-59.671,-30.376],[-59.672,-30.339],[-59.588,-30.435],[-59.558,-30.333],[-59.42,-30.316],[-59.23,-30.364],[-59.064,-30.231],[-58.965,-30.218],[-58.879,-30.247],[-58.748,-30.214],[-58.682,-30.164],[-58.585,-30.159]],[[-58.11,-32.971],[-58.115,-33.025],[-58.094,-33.009],[-58.089,-32.958],[-58.11,-32.971]],[[-58.114,-33.021],[-58.115,-32.991],[-58.125,-33.013],[-58.114,-33.021]]]]}},{"type":"Feature","properties":{"codigo_indec":"18","nombre":"Corrientes"},"geometry":{"type":"MultiPolygon","coordinates":[[[[-57.971,-27.275],[-57.874,-27.273],[-57.795,-27.341],[-57.697,-27.327],[-57.508,-27.444],[-57.327,-27.41],[-57.225,-27.47],[-56.98,-27.493],[-56.942,-27.558],[-56.845,-27.606],[-56.686,-27.577],[-56.72,-27.467],[-56.604,-27.431],[-56.487,-27.564],[-56.375,-27.602],[-56.292,-27.492],[-56.287,-27.411],[-56.152,-27.329],[-56.046,-27.309],[-56.024,-27.338],[-56.055,-27.451],[-55.826,-27.792],[-55.846,-27.832],[-55.824,-27.948],[-55.749,-28.027],[-55.758,-28.061],[-55.717,-28.061],[-55.62,-28.146],[-55.783,-28.254],[-55.67,-28.331],[-55.696,-28.423],[-55.757,-28.369],[-55.878,-28.361],[-55.903,-28.408],[-55.882,-28.478],[-56.009,-28.506],[-56.008,-28.605],[-56.186,-28.77],[-56.294,-28.798],[-56.302,-28.901],[-56.41,-28.978],[-56.42,-29.079],[-56.592,-29.124],[-56.704,-29.362],[-56.767,-29.383],[-56.814,-29.482],[-56.957,-29.59],[-56.971,-29.642],[-57.12,-29.764],[-57.23,-29.779],[-57.289,-29.825],[-57.328,-29.883],[-57.337,-29.99],[-57.474,-30.12],[-57.645,-30.182],[-57.615,-30.254],[-57.643,-30.342],[-57.89,-30.511],[-57.887,-30.588],[-57.809,-30.73],[-58.033,-30.598],[-58.062,-30.507],[-58.073,-30.425],[-58.142,-30.405],[-58.223,-30.277],[-58.286,-30.245],[-58.369,-30.265],[-58.576,-30.16],[-58.682,-30.164],[-58.748,-30.214],[-58.879,-30.247],[-58.965,-30.218],[-59.064,-30.231],[-59.23,-30.364],[-59.42,-30.316],[-59.558,-30.333],[-59.588,-30.435],[-59.712,-30.276],[-59.637,-30.237],[-59.566,-30.008],[-59.66,-29.843],[-59.618,-29.776],[-59.59,-29.57],[-59.604,-29.395],[-59.52,-29.343],[-59.501,-29.244],[-59.408,-29.221],[-59.347,-29.114],[-59.205,-29.041],[-59.16,-28.795],[-59.079,-28.667],[-59.1,-28.576],[-59.049,-28.493],[-59.086,-28.436],[-59.108,-28.223],[-59.062,-28.128],[-58.945,-28.134],[-58.86,-28.05],[-58.832,-27.974],[-58.819,-27.681],[-58.883,-27.609],[-58.881,-27.498],[-58.781,-27.382],[-58.497,-27.271],[-57.971,-27.275]]],[[[-56.915,-27.424],[-56.728,-27.503],[-56.766,-27.566],[-56.853,-27.592],[-56.97,-27.493],[-57.032,-27.481],[-56.915,-27.424]]],[[[-57.567,-27.385],[-57.408,-27.414],[-57.455,-27.429],[-57.516,-27.431],[-57.593,-27.392],[-57.567,-27.385]]],[[[-56.705,-27.563],[-56.734,-27.591],[-56.766,-27.577],[-56.717,-27.52],[-56.705,-27.563]]]]}},{"type":"Feature","properties":{"codigo_indec":"50","nombre":"Mendoza"},"geometry":{"type":"MultiPolygon","coordinates":[[[[-69.124,-32.003],[-69.013,-32.116],[-68.918,-32.115],[-68.918,-32.338],[-68.666,-32.337],[-68.461,-32.238],[-68.461,-32.139],[-68.301,-32.139],[-68.248,-32.092],[-68.151,-32.119],[-68.053,-32.071],[-67.958,-32.092],[-67.917,-32.175],[-67.849,-32.223],[-67.597,-32.246],[-67.522,-32.221],[-67.473,-32.307],[-67.332,-32.351],[-67.289,-32.443],[-67.297,-32.536],[-67.263,-32.553],[-67.257,-32.626],[-67.166,-32.759],[-67.232,-32.885],[-67.179,-33.004],[-67.18,-33.252],[-67.135,-33.465],[-66.998,-33.633],[-67.005,-33.667],[-66.883,-33.769],[-66.873,-33.833],[-66.666,-33.959],[-66.734,-34.137],[-66.719,-34.212],[-66.784,-34.233],[-66.776,-34.299],[-66.812,-34.345],[-66.764,-34.379],[-66.795,-34.411],[-66.754,-34.443],[-66.757,-34.567],[-66.703,-34.62],[-66.69,-34.691],[-66.641,-34.717],[-66.65,-34.758],[-66.561,-34.833],[-66.525,-34.944],[-66.541,-35.015],[-66.478,-35.142],[-66.484,-35.241],[-66.52,-35.274],[-66.496,-35.311],[-66.525,-35.54],[-66.57,-35.581],[-66.548,-35.639],[-66.623,-35.852],[-66.62,-35.971],[-66.638,-36.001],[-68.296,-35.998],[-68.296,-36.173],[-68.25,-36.172],[-68.261,-37.575],[-68.437,-37.545],[-68.505,-37.454],[-68.697,-37.442],[-68.766,-37.366],[-68.865,-37.401],[-69.026,-37.365],[-69.064,-37.224],[-69.268,-37.145],[-69.53,-37.174],[-69.712,-37.101],[-69.756,-37.069],[-69.776,-36.991],[-69.752,-36.882],[-69.922,-36.795],[-69.948,-36.722],[-70.012,-36.696],[-70.123,-36.571],[-70.202,-36.454],[-70.215,-36.358],[-70.23,-36.325],[-70.351,-36.324],[-70.397,-36.119],[-70.425,-36.098],[-70.37,-36.04],[-70.378,-35.99],[-70.423,-35.972],[-70.365,-35.924],[-70.424,-35.915],[-70.422,-35.877],[-70.312,-35.813],[-70.379,-35.788],[-70.358,-35.75],[-70.424,-35.641],[-70.385,-35.605],[-70.414,-35.528],[-70.368,-35.521],[-70.447,-35.463],[-70.452,-35.392],[-70.419,-35.35],[-70.432,-35.318],[-70.566,-35.299],[-70.584,-35.267],[-70.536,-35.199],[-70.375,-35.17],[-70.364,-35.006],[-70.248,-34.799],[-70.306,-34.747],[-70.216,-34.683],[-70.217,-34.611],[-70.129,-34.486],[-70.012,-34.412],[-70.031,-34.287],[-69.972,-34.25],[-69.91,-34.292],[-69.805,-34.246],[-69.802,-34.194],[-69.873,-34.131],[-69.821,-34.015],[-69.854,-33.964],[-69.906,-33.963],[-69.856,-33.892],[-69.899,-33.847],[-69.905,-33.771],[-69.865,-33.717],[-69.872,-33.539],[-69.835,-33.516],[-69.796,-33.421],[-69.816,-33.39],[-69.786,-33.391],[-69.769,-33.346],[-69.8,-33.288],[-69.904,-33.273],[-69.917,-33.244],[-70.001,-33.323],[-70.038,-33.27],[-70.026,-33.237],[-70.064,-33.205],[-70.052,-33.135],[-70.094,-33.051],[-70.021,-33.009],[-69.989,-32.899],[-70.108,-32.801],[-70.172,-32.621],[-70.126,-32.574],[-70.065,-32.625],[-70.003,-32.529],[-69.847,-32.57],[-69.779,-32.542],[-69.705,-32.496],[-69.689,-32.43],[-69.733,-32.391],[-69.729,-32.331],[-69.63,-32.262],[-69.596,-32.141],[-69.531,-32.141],[-69.416,-32.067],[-69.314,-32.091],[-69.245,-32.016],[-69.124,-32.003]]]]}},{"type":"Feature","properties":{"codigo_indec":"70","nombre":"San Juan"},"geometry":{"type":"MultiPolygon","coordinates":[[[[-69.611,-28.414],[-69.47,-28.415],[-69.387,-28.451],[-69.316,-28.412],[-69.203,-28.596],[-69.21,-28.682],[-69.162,-28.761],[-68.909,-28.859],[-68.956,-28.949],[-68.909,-29.045],[-68.912,-29.129],[-69.001,-29.187],[-68.958,-29.317],[-69.002,-29.4],[-68.975,-29.457],[-69.034,-29.533],[-69.016,-29.65],[-68.938,-29.652],[-68.884,-29.593],[-68.863,-29.635],[-68.441,-29.651],[-68.258,-29.747],[-68.254,-29.781],[-68.199,-29.781],[-68.159,-29.885],[-68.054,-29.9],[-67.898,-30.074],[-67.591,-30.298],[-67.578,-30.404],[-67.495,-30.536],[-67.41,-30.627],[-67.283,-30.695],[-67.129,-30.896],[-67.082,-30.916],[-67.116,-31.016],[-67.067,-31.083],[-67.101,-31.383],[-66.952,-31.633],[-66.868,-31.633],[-66.802,-31.812],[-66.662,-31.921],[-67.137,-31.834],[-67.242,-31.881],[-67.379,-31.868],[-67.38,-32.224],[-67.278,-32.292],[-67.264,-32.382],[-67.473,-32.307],[-67.522,-32.221],[-67.597,-32.246],[-67.849,-32.223],[-67.917,-32.175],[-67.958,-32.092],[-68.053,-32.071],[-68.151,-32.119],[-68.248,-32.092],[-68.301,-32.139],[-68.461,-32.139],[-68.461,-32.238],[-68.666,-32.337],[-68.918,-32.338],[-68.918,-32.115],[-69.013,-32.116],[-69.117,-32.002],[-69.184,-31.999],[-69.245,-32.016],[-69.314,-32.091],[-69.416,-32.067],[-69.531,-32.141],[-69.596,-32.141],[-69.63,-32.262],[-69.729,-32.331],[-69.733,-32.391],[-69.689,-32.43],[-69.706,-32.497],[-69.847,-32.57],[-70.004,-32.529],[-70.072,-32.626],[-70.126,-32.574],[-70.149,-32.466],[-70.237,-32.429],[-70.218,-32.333],[-70.323,-32.267],[-70.304,-32.136],[-70.342,-32.109],[-70.335,-32.07],[-70.388,-32.045],[-70.364,-32.025],[-70.289,-32.052],[-70.209,-31.96],[-70.28,-31.884],[-70.377,-31.885],[-70.46,-31.844],[-70.468,-31.698],[-70.513,-31.69],[-70.507,-31.652],[-70.567,-31.6],[-70.524,-31.19],[-70.456,-31.084],[-70.401,-31.167],[-70.322,-31.043],[-70.269,-31.043],[-70.323,-30.928],[-70.246,-30.729],[-70.247,-30.634],[-70.179,-30.512],[-70.195,-30.492],[-70.118,-30.432],[-70.155,-30.347],[-70.063,-30.394],[-69.955,-30.386],[-69.892,-30.351],[-69.885,-30.219],[-69.835,-30.22],[-69.819,-30.189],[-69.817,-30.128],[-69.936,-30.12],[-69.965,-30.085],[-69.898,-29.958],[-69.877,-29.862],[-69.915,-29.793],[-69.879,-29.726],[-69.94,-29.654],[-69.966,-29.414],[-70.021,-29.384],[-70.021,-29.33],[-69.938,-29.25],[-69.953,-29.189],[-69.876,-29.139],[-69.788,-29.133],[-69.766,-28.899],[-69.693,-28.771],[-69.729,-28.737],[-69.73,-28.678],[-69.65,-28.538],[-69.681,-28.471],[-69.633,-28.43],[-69.649,-28.396],[-69.611,-28.414]]]]}},{"type":"Feature","properties":{"codigo_indec":"58","nombre":"Neuquén"},"geometry":{"type":"MultiPolygon","coordinates":[[[[-70.393,-36.156],[-70.344,-36.333],[-70.225,-36.327],[-70.202,-36.454],[-70.123,-36.571],[-70.012,-36.696],[-69.948,-36.722],[-69.922,-36.795],[-69.76,-36.872],[-69.776,-36.991],[-69.756,-37.069],[-69.712,-37.101],[-69.53,-37.174],[-69.268,-37.145],[-69.064,-37.224],[-69.026,-37.365],[-68.865,-37.401],[-68.766,-37.366],[-68.697,-37.442],[-68.505,-37.454],[-68.437,-37.545],[-68.254,-37.572],[-68.256,-38.68],[-68.121,-38.747],[-68.094,-38.859],[-67.998,-38.996],[-68.302,-38.975],[-68.562,-39.076],[-68.661,-39.172],[-68.663,-39.215],[-68.802,-39.285],[-68.824,-39.375],[-68.913,-39.418],[-69.0,-39.515],[-69.113,-39.515],[-69.277,-39.596],[-69.272,-39.629],[-69.349,-39.712],[-69.507,-39.815],[-69.697,-39.846],[-69.932,-39.944],[-70.005,-40.047],[-69.95,-40.179],[-69.992,-40.18],[-70.059,-40.249],[-70.063,-40.375],[-70.175,-40.428],[-70.179,-40.49],[-70.425,-40.536],[-70.542,-40.504],[-70.65,-40.59],[-70.855,-40.593],[-70.977,-40.649],[-71.03,-40.724],[-71.089,-40.725],[-71.119,-40.804],[-71.047,-40.871],[-71.036,-40.956],[-71.102,-40.991],[-71.142,-41.056],[-71.289,-41.101],[-71.551,-41.023],[-71.861,-41.031],[-71.909,-40.972],[-71.857,-40.96],[-71.859,-40.881],[-71.928,-40.833],[-71.921,-40.786],[-71.965,-40.727],[-71.844,-40.628],[-71.825,-40.578],[-71.857,-40.592],[-71.891,-40.556],[-71.843,-40.525],[-71.825,-40.421],[-71.741,-40.437],[-71.657,-40.364],[-71.686,-40.293],[-71.717,-40.279],[-71.748,-40.307],[-71.823,-40.233],[-71.799,-40.137],[-71.831,-40.104],[-71.814,-40.08],[-71.674,-40.104],[-71.689,-40.033],[-71.593,-39.912],[-71.691,-39.842],[-71.667,-39.808],[-71.713,-39.724],[-71.67,-39.682],[-71.717,-39.649],[-71.698,-39.587],[-71.674,-39.564],[-71.61,-39.628],[-71.502,-39.637],[-71.461,-39.583],[-71.534,-39.529],[-71.473,-39.494],[-71.447,-39.451],[-71.457,-39.37],[-71.4,-39.35],[-71.374,-39.283],[-71.421,-39.151],[-71.396,-39.046],[-71.442,-38.981],[-71.434,-38.929],[-71.296,-38.873],[-71.238,-38.802],[-71.185,-38.815],[-71.095,-38.755],[-70.926,-38.763],[-70.884,-38.702],[-70.905,-38.667],[-70.827,-38.596],[-70.842,-38.538],[-70.984,-38.43],[-70.998,-38.291],[-71.032,-38.25],[-70.996,-38.171],[-71.043,-38.123],[-70.989,-38.087],[-71.055,-38.044],[-71.063,-37.97],[-71.114,-37.952],[-71.099,-37.902],[-71.183,-37.858],[-71.126,-37.821],[-71.211,-37.697],[-71.206,-37.648],[-71.128,-37.588],[-71.152,-37.539],[-71.118,-37.469],[-71.154,-37.401],[-71.197,-37.384],[-71.221,-37.275],[-71.115,-37.208],[-71.135,-37.148],[-71.092,-37.115],[-71.167,-36.997],[-71.222,-36.978],[-71.106,-36.971],[-71.087,-36.933],[-71.144,-36.929],[-71.119,-36.869],[-71.18,-36.841],[-71.132,-36.815],[-71.113,-36.679],[-71.065,-36.715],[-71.009,-36.691],[-71.057,-36.619],[-71.034,-36.473],[-70.956,-36.504],[-70.889,-36.466],[-70.884,-36.396],[-70.713,-36.428],[-70.679,-36.39],[-70.712,-36.345],[-70.685,-36.305],[-70.706,-36.273],[-70.632,-36.239],[-70.571,-36.176],[-70.576,-36.138],[-70.449,-36.173],[-70.415,-36.11],[-70.393,-36.156]]]]}},{"type":"Feature","properties":{"codigo_indec":"46","nombre":"La Rioja"},"geometry":{"type":"MultiPolygon","coordinates":[[[[-68.521,-27.818],[-68.44,-27.874],[-68.442,-28.024],[-68.397,-28.004],[-68.336,-28.038],[-68.286,-28.026],[-68.275,-28.095],[-68.246,-28.071],[-68.141,-28.102],[-68.107,-28.173],[-68.022,-28.125],[-67.914,-28.114],[-67.932,-28.175],[-67.842,-28.317],[-67.845,-28.375],[-67.691,-28.312],[-67.375,-28.385],[-67.155,-28.384],[-67.075,-28.27],[-67.016,-28.254],[-66.571,-28.289],[-66.496,-28.622],[-66.352,-28.721],[-66.411,-28.815],[-66.4,-28.861],[-66.1,-28.944],[-65.817,-29.179],[-65.816,-29.27],[-65.748,-29.27],[-65.719,-29.41],[-65.423,-30.12],[-65.525,-30.491],[-65.771,-31.044],[-65.77,-31.889],[-65.89,-31.911],[-65.979,-31.889],[-66.069,-31.936],[-66.079,-31.972],[-66.299,-31.931],[-66.367,-31.998],[-66.662,-31.921],[-66.768,-31.848],[-66.868,-31.633],[-66.952,-31.633],[-67.101,-31.383],[-67.067,-31.083],[-67.116,-31.016],[-67.082,-30.916],[-67.129,-30.896],[-67.283,-30.695],[-67.41,-30.627],[-67.495,-30.536],[-67.578,-30.404],[-67.591,-30.298],[-67.898,-30.074],[-68.054,-29.9],[-68.159,-29.885],[-68.199,-29.781],[-68.254,-29.781],[-68.258,-29.747],[-68.441,-29.651],[-68.863,-29.635],[-68.884,-29.593],[-68.938,-29.652],[-69.016,-29.65],[-69.034,-29.533],[-68.975,-29.457],[-69.002,-29.402],[-68.958,-29.317],[-68.976,-29.279],[-69.001,-29.187],[-68.912,-29.129],[-68.909,-29.045],[-68.956,-28.949],[-68.909,-28.859],[-69.162,-28.761],[-69.21,-28.682],[-69.203,-28.596],[-69.316,-28.412],[-69.43,-28.451],[-69.47,-28.415],[-69.606,-28.419],[-69.635,-28.384],[-69.597,-28.392],[-69.583,-28.352],[-69.524,-28.33],[-69.456,-28.184],[-69.391,-28.226],[-69.382,-28.182],[-69.307,-28.129],[-69.237,-27.967],[-69.173,-27.971],[-69.123,-27.901],[-69.095,-27.797],[-68.799,-27.756],[-68.719,-27.815],[-68.626,-27.792],[-68.583,-27.82],[-68.545,-27.707],[-68.521,-27.818]]]]}},{"type":"Feature","properties":{"codigo_indec":"10","nombre":"Catamarca"},"geometry":{"type":"MultiPolygon","coordinates":[[[[-68.588,-27.818],[-68.626,-27.792],[-68.719,-27.815],[-68.799,-27.756],[-69.095,-27.789],[-69.09,-27.721],[-69.044,-27.697],[-69.054,-27.619],[-68.975,-27.56],[-68.988,-27.524],[-68.942,-27.519],[-68.981,-27.432],[-68.935,-27.445],[-68.93,-27.409],[-68.888,-27.398],[-68.87,-27.318],[-68.809,-27.301],[-68.868,-27.262],[-68.844,-27.161],[-68.778,-27.099],[-68.67,-27.099],[-68.631,-27.163],[-68.575,-27.177],[-68.557,-27.115],[-68.481,-27.128],[-68.484,-27.058],[-68.451,-27.095],[-68.347,-27.033],[-68.294,-27.038],[-68.319,-26.982],[-68.263,-26.919],[-68.588,-26.492],[-68.557,-26.287],[-68.381,-26.178],[-68.477,-25.701],[-68.545,-25.633],[-68.515,-25.574],[-68.589,-25.448],[-68.59,-25.414],[-68.524,-25.379],[-68.548,-25.262],[-68.509,-25.232],[-68.507,-25.168],[-67.865,-25.238],[-66.879,-25.242],[-66.558,-25.301],[-66.6,-25.362],[-66.537,-25.372],[-66.519,-25.44],[-66.564,-25.622],[-66.606,-25.629],[-66.649,-25.712],[-66.813,-25.7],[-66.874,-25.766],[-66.848,-25.796],[-66.843,-25.977],[-66.724,-26.079],[-66.661,-26.077],[-66.623,-26.131],[-66.572,-26.179],[-66.54,-26.353],[-66.382,-26.417],[-66.233,-26.152],[-66.159,-26.142],[-66.094,-26.249],[-66.121,-26.276],[-66.119,-26.377],[-66.156,-26.397],[-66.176,-26.469],[-66.171,-26.631],[-66.042,-26.6],[-65.831,-26.741],[-65.9,-26.864],[-65.858,-26.929],[-66.14,-27.262],[-65.972,-27.333],[-65.971,-27.524],[-65.93,-27.647],[-65.865,-27.689],[-65.832,-27.851],[-65.799,-27.787],[-65.753,-27.77],[-65.704,-27.808],[-65.666,-27.973],[-65.617,-27.972],[-65.576,-28.014],[-65.498,-27.923],[-65.371,-27.846],[-65.171,-27.946],[-65.112,-28.187],[-65.097,-28.471],[-65.126,-28.611],[-65.185,-28.601],[-65.187,-28.624],[-65.137,-28.647],[-65.127,-28.716],[-65.017,-28.738],[-64.901,-28.841],[-64.854,-29.197],[-64.781,-29.268],[-64.825,-29.274],[-64.842,-29.313],[-64.786,-29.405],[-64.826,-29.474],[-64.825,-29.574],[-64.964,-29.596],[-64.938,-29.848],[-65.158,-30.047],[-65.423,-30.12],[-65.719,-29.41],[-65.748,-29.27],[-65.816,-29.27],[-65.817,-29.179],[-66.1,-28.944],[-66.4,-28.861],[-66.411,-28.815],[-66.352,-28.721],[-66.496,-28.622],[-66.571,-28.289],[-67.016,-28.254],[-67.075,-28.27],[-67.155,-28.384],[-67.375,-28.385],[-67.691,-28.312],[-67.845,-28.375],[-67.842,-28.317],[-67.932,-28.175],[-67.914,-28.114],[-68.022,-28.125],[-68.107,-28.173],[-68.141,-28.102],[-68.246,-28.071],[-68.275,-28.095],[-68.286,-28.026],[-68.457,-28.016],[-68.44,-27.874],[-68.514,-27.843],[-68.545,-27.707],[-68.588,-27.818]]]]}},{"type":"Feature","properties":{"codigo_indec":"78","nombre":"Santa Cruz"},"geometry":{"type":"MultiPolygon","coordinates":[[[[-72.699,-48.897],[-72.688,-48.865],[-72.64,-48.866],[-72.531,-48.793],[-72.586,-48.487],[-72.442,-48.514],[-72.374,-48.45],[-72.406,-48.416],[-72.348,-48.39],[-72.381,-48.35],[-72.278,-48.363],[-72.227,-48.322],[-72.317,-48.234],[-72.3,-48.158],[-72.361,-48.073],[-72.444,-48.064],[-72.425,-47.969],[-72.528,-47.937],[-72.468,-47.813],[-72.523,-47.741],[-72.442,-47.745],[-72.421,-47.662],[-72.309,-47.591],[-72.328,-47.572],[-72.291,-47.512],[-72.341,-47.455],[-72.245,-47.406],[-72.198,-47.417],[-72.128,-47.329],[-72.047,-47.34],[-71.998,-47.297],[-72.019,-47.198],[-71.864,-47.23],[-71.895,-47.211],[-71.851,-47.164],[-71.86,-47.131],[-71.954,-47.076],[-71.881,-47.011],[-71.958,-46.975],[-71.971,-46.905],[-71.931,-46.868],[-71.955,-46.815],[-71.834,-46.797],[-71.644,-46.681],[-71.67,-46.529],[-71.757,-46.346],[-71.727,-46.272],[-71.78,-46.197],[-71.86,-46.194],[-71.865,-46.157],[-71.915,-46.14],[-71.715,-46.089],[-71.646,-46.0],[-67.596,-46.0],[-67.627,-46.084],[-67.614,-46.231],[-67.44,-46.549],[-67.355,-46.619],[-67.122,-46.707],[-66.792,-46.999],[-66.631,-47.046],[-66.498,-47.038],[-66.198,-47.087],[-65.941,-47.072],[-65.867,-47.092],[-65.736,-47.202],[-65.758,-47.222],[-65.718,-47.332],[-65.74,-47.51],[-65.839,-47.747],[-66.005,-47.731],[-66.282,-47.871],[-65.978,-47.763],[-65.881,-47.763],[-65.858,-47.873],[-65.768,-47.907],[-65.79,-47.938],[-65.765,-47.95],[-65.924,-47.94],[-65.951,-47.976],[-65.932,-48.017],[-65.98,-48.051],[-65.894,-48.101],[-66.118,-48.122],[-66.16,-48.19],[-66.23,-48.202],[-66.344,-48.291],[-66.345,-48.37],[-66.448,-48.352],[-66.494,-48.417],[-66.736,-48.465],[-66.831,-48.523],[-66.875,-48.593],[-67.125,-48.682],[-67.22,-48.838],[-67.413,-48.913],[-67.568,-49.032],[-67.636,-49.138],[-67.614,-49.185],[-67.741,-49.275],[-67.716,-49.318],[-67.798,-49.328],[-67.772,-49.381],[-67.838,-49.387],[-67.701,-49.378],[-67.668,-49.255],[-67.613,-49.25],[-67.604,-49.295],[-67.683,-49.461],[-67.732,-49.783],[-67.888,-49.987],[-68.143,-50.104],[-68.343,-50.121],[-68.532,-49.934],[-68.637,-49.778],[-68.571,-49.937],[-68.875,-49.966],[-68.933,-50.0],[-68.859,-49.969],[-68.673,-49.993],[-68.581,-49.964],[-68.509,-50.02],[-68.49,-50.088],[-68.355,-50.151],[-68.88,-50.336],[-69.079,-50.565],[-69.141,-50.727],[-69.132,-50.9],[-69.225,-50.975],[-69.321,-50.988],[-69.396,-51.08],[-69.465,-51.113],[-69.206,-50.975],[-69.166,-50.981],[-68.959,-51.572],[-69.037,-51.561],[-69.135,-51.603],[-69.344,-51.552],[-69.618,-51.627],[-69.335,-51.586],[-69.117,-51.63],[-69.117,-51.655],[-69.014,-51.606],[-68.961,-51.624],[-68.708,-51.981],[-68.353,-52.323],[-68.433,-52.398],[-68.419,-52.332],[-68.838,-52.278],[-69.19,-52.15],[-69.486,-52.151],[-69.996,-52.001],[-71.921,-52.0],[-72.029,-51.968],[-71.932,-51.92],[-71.951,-51.872],[-72.122,-51.744],[-72.297,-51.699],[-72.283,-51.639],[-72.327,-51.587],[-72.443,-51.584],[-72.405,-51.513],[-72.345,-51.521],[-72.351,-51.485],[-72.324,-51.475],[-72.338,-51.425],[-72.309,-51.366],[-72.372,-51.336],[-72.259,-51.254],[-72.304,-51.202],[-72.349,-51.204],[-72.409,-51.107],[-72.374,-51.023],[-72.266,-51.035],[-72.248,-50.875],[-72.35,-50.74],[-72.286,-50.66],[-72.359,-50.616],[-72.408,-50.636],[-72.49,-50.6],[-72.595,-50.682],[-72.73,-50.615],[-72.891,-50.67],[-72.955,-50.741],[-73.07,-50.789],[-73.097,-50.773],[-73.268,-50.824],[-73.285,-50.788],[-73.256,-50.75],[-73.286,-50.74],[-73.173,-50.677],[-73.271,-50.649],[-73.289,-50.586],[-73.386,-50.516],[-73.365,-50.488],[-73.433,-50.483],[-73.404,-50.451],[-73.486,-50.382],[-73.481,-50.326],[-73.565,-50.271],[-73.555,-50.184],[-73.521,-50.153],[-73.542,-50.119],[-73.483,-50.054],[-73.567,-50.02],[-73.505,-49.966],[-73.553,-49.924],[-73.439,-49.758],[-73.509,-49.705],[-73.464,-49.619],[-73.55,-49.538],[-73.54,-49.498],[-73.464,-49.482],[-73.49,-49.429],[-73.426,-49.392],[-73.411,-49.319],[-73.497,-49.268],[-73.473,-49.203],[-73.046,-49.274],[-73.133,-49.267],[-73.145,-49.19],[-73.005,-49.063],[-72.99,-48.99],[-72.923,-48.936],[-72.795,-48.968],[-72.699,-48.897]]]]}}]}